METHANESAT              
1 59101U 24043D   25208.93186633  .00002121  00000+0  19639-3 0  9991
2 59101  97.8056 334.8126 0011227  19.4945 340.6703 14.95547534 76143
GOSAT-GW (IBUKI GW)     
1 64694U 25141A   25208.92071940  .00000835  00000+0  15559-3 0  9994
2 64694  98.0257 147.0843 0001459  85.4568 274.6804 14.67567852  4280
GHGSAT-C1               
1 46278U 20061G   25209.18271400  .00014304  00000+0  24080-3 0  9995
2 46278  97.2484 283.1905 0003042 134.9507 225.1993 15.51815506272941
GHGSAT-C2               
1 47509U 21006DA  25209.17818563  .00005179  00000+0  16602-3 0  9990
2 47509  97.2649 257.0894 0004237 243.1742 116.9068 15.32779788250137
GHGSAT-C3               
1 52737U 22057F   25209.20468142  .00005501  00000+0  19923-3 0  9992
2 52737  97.6184 339.9982 0006813 176.2422 183.8870 15.28801633175944
GHGSAT-C4               
1 52746U 22057Q   25209.15749100  .00006151  00000+0  22245-3 0  9995
2 52746  97.6112 339.1028 0007395 163.1428 197.0059 15.28795150175947
GHGSAT-C5               
1 52744U 22057N   25209.17380413  .00005961  00000+0  21577-3 0  9998
2 52744  97.6270 341.1649 0007921 174.1889 185.9444 15.28780825175947
GHGSAT-C6               
1 56204U 23054AC  25209.19495597  .00009269  00000+0  21581-3 0  9993
2 56204  97.3266 110.4607 0010716 133.1873 227.0272 15.42447011128341
GHGSAT-C7               
1 56209U 23054AH  25209.20838165  .00007485  00000+0  17942-3 0  9996
2 56209  97.3228 110.0181 0010780 127.1728 233.0505 15.41639698128349
GHGSAT-C8               
1 56186U 23054J   25209.16973821  .00009252  00000+0  21545-3 0  9992
2 56186  97.3236 109.9193 0007535 146.9823 213.1896 15.42472240128320
SENTINEL-5P             
1 42969U 17064A   25208.82690547  .00000051  00000+0  45079-4 0  9990
2 42969  98.7586 148.7905 0001333  85.3783 274.7545 14.19534549403548
ENMAP                   
1 52159U 22033C   25209.23315615  .00000476  00000+0  78339-4 0  9996
2 52159  97.9781 291.1359 0001297  88.2208 271.9149 14.74970871178896
PRISMA                  
1 44072U 19015A   25209.21757513  .00000859  00000+0  11050-3 0  9993
2 44072  97.8738 283.6341 0001227  93.4377 266.6977 14.83644431344016
SENTINEL-2A             
1 40697U 15028A   25209.15877591  .00000125  00000+0  64315-4 0  9993
2 40697  98.5679 283.6594 0001167  94.4973 265.6343 14.30821102527397
SENTINEL-2B             
1 42063U 17013A   25209.22150889  .00000123  00000+0  63610-4 0  9995
2 42063  98.5682 283.6635 0001273  98.8674 261.2653 14.30822962438325
SENTINEL-2C             
1 60989U 24157A   25208.83714051  .00000122  00000+0  63260-4 0  9992
2 60989  98.5671 283.3585 0001194  97.4217 262.7101 14.30821379 46602
LANDSAT 8               
1 39084U 13008A   25209.17971840  .00000349  00000+0  87506-4 0  9996
2 39084  98.2236 279.1497 0001253  89.9788 270.1554 14.57111743662535
LANDSAT 9               
1 49260U 21088A   25209.14537875  .00000378  00000+0  94044-4 0  9990
2 49260  98.2256 279.1170 0001336  85.1775 274.9576 14.57109343203808
TANAGER-1               
1 60507U 24149AR  25208.75454208  .00011358  00000+0  25328-3 0  9990
2 60507  97.4011 293.6276 0009451 237.1382 122.8956 15.43699621 52985
